OBJECT C                
1 57582U 23117C   24231.20024960  .00032127  00000+0  16025-2 0  9996
2 57582  97.4836 302.4509 0011842  81.7815 278.4761 15.17395353 56586
